0 DELTA 1 DEB
1 19311U 75004HP  13281.74871239  .00000825  00000-0  32306-3 0  9023
2 19311 097.7015 004.5999 0153036 163.0372 197.6008 14.25372586325882
0 DELTA 1 DEB
1 19311U 75004HP  13283.99508115  .00001042  00000-0  40434-3 0  9036
2 19311 097.7017 006.5744 0153123 156.3627 204.4689 14.25379810326205
0 DELTA 1 DEB
1 19311U 75004HP  13285.75004986  .00000856  00000-0  33448-3 0  9049
2 19311 097.7017 008.1172 0153164 151.1695 209.8060 14.25383042326452
0 DELTA 1 DEB
1 19311U 75004HP  13287.01362372  .00000993  00000-0  38598-3 0  9050
2 19311 097.7017 009.2279 0153201 147.3977 213.6779 14.25384931326632
0 DELTA 1 DEB
1 19311U 75004HP  13288.48778879  .00001386  00000-0  53329-3 0  9062
2 19311 097.7014 010.5239 0153228 143.0183 218.1680 14.25390487326848
0 DELTA 1 DEB
1 19311U 75004HP  13290.45333317  .00001091  00000-0  42235-3 0  9074
2 19311 097.7010 012.2517 0153267 137.1987 224.1249 14.25396336327120
0 DELTA 1 DEB
1 19311U 75004HP  13292.06787945  .00001124  00000-0  43487-3 0  9081
2 19311 097.7007 013.6710 0153274 132.4236 229.0030 14.25398662327350
0 DELTA 1 DEB
1 19311U 75004HP  13293.19103945  .00001148  00000-0  44389-3 0  9097
2 19311 097.7005 014.6583 0153268 129.0948 232.3981 14.25401393327518
0 DELTA 1 DEB
1 19311U 75004HP  13294.45459087  .00001030  00000-0  39945-3 0  9102
2 19311 097.7007 015.7686 0153241 125.3530 236.2085 14.25405282327691
0 DELTA 1 DEB
1 19311U 75004HP  13295.71813714  .00001151  00000-0  44476-3 0  9113
2 19311 097.7006 016.8792 0153285 121.6072 240.0174 14.25407871327876
